NUSAT-48 (HENRIETTA LE*)
1 60498U 24149AG  26068.80506098  .00012988  00000+0  45212-3 0  9999
2 60498  97.3923 150.8264 0002754 263.3026  96.7901 15.29812597 86946
STARLINK-36554          
1 67502U 26012K   26067.71268370  .00032833  00000+0  11969-2 0  9992
2 67502  42.9934 319.8184 0000695 339.2059  20.8765 15.27591469  7619
